#aV2014  4  2  0  0  0.00000000     288 DD+AD WGS84 FIT  NGA
## 1786 259200.00000000   300.00000000 56749 0.0000000000000
+   31     1  2  3  4  5  7  8  9 10 11 12 13 14 15 16 17 18
+         19 20 21 22 23 24 25 26 27 28 29 30 31 32  0  0  0
+          0  0  0  0  0  0  0  0  0  0  0  0  0  0  0  0  0
+          0  0  0  0  0  0  0  0  0  0  0  0  0  0  0  0  0
+          0  0  0  0  0  0  0  0  0  0  0  0  0  0  0  0  0
++         2  2  2  2  2  2  2  2  2  2  2  2  2  2  2  2  2
++         2  2  2  2  2  2  2  2  2  2  2  2  2  2  0  0  0
++         0  0  0  0  0  0  0  0  0  0  0  0  0  0  0  0  0
++         0  0  0  0  0  0  0  0  0  0  0  0  0  0  0  0  0
++         0  0  0  0  0  0  0  0  0  0  0  0  0  0  0  0  0
%c cc cc ccc ccc cccc cccc cccc cccc ccccc ccccc ccccc ccccc
%c cc cc ccc ccc cccc cccc cccc cccc ccccc ccccc ccccc ccccc
%f  0.0000000  0.000000000  0.00000000000  0.000000000000000
%f  0.0000000  0.000000000  0.00000000000  0.000000000000000
%i    0    0    0    0      0      0      0      0         0
%i    0    0    0    0      0      0      0      0         0
/*      NGA, ST. LOUIS,MO.                                  
/*   EPHEMERIS COMPUTED FROM  1 DAYS OF DATA                
/*   EPOCHA SMOOTHER                                       
/* CCCCCCCCCCCCCCCCCCCCCCCCCCCCCCCCCCCCCCCCCCCCCCCCCCCCCCCCC
*  2014  4  2 23 10  0.00000000
P  1   5769.086040 -18391.459260 -18245.692560      6.924845                    
V  1  20646.400342 -10609.123651  17376.765986      0.016595                    
P  2 -21912.951577  14514.287472    458.729155    487.497604                    
V  2  -2352.374911  -3169.068113 -31589.313725      0.021619                    
P  3   8323.956900 -19187.013945  15736.666688    346.723579                    
V  3   6288.384821  20326.104712  20906.581902      0.049893                    
P  4 -23179.995710   3085.454908 -13122.062843      6.403832                    
V  4  12354.718987 -10680.008734 -24685.959759      0.001313                    
P  5 -15522.516242   7970.431918  20027.792521   -381.066220                    
V  5 -21924.671486 -13105.485769 -11593.640105      0.020517                    
P  7  -9426.326143 -11780.179046  21943.809035    330.966916                    
V  7  23893.711620 -13894.979619   2493.919423      0.042312                    
P  8 -18589.027948  -4863.729426  18753.115703     12.672775                    
V  8  20895.735716 -10090.644556  17655.506524      0.001699                    
P  9 -19818.836505  -1382.443664  17182.303976    317.187210                    
V  9  18736.859380 -12986.228564  19788.134311      0.029452                    
P 10 -24491.444171  -7769.436369   7207.258257   -120.327017                    
V 10  -6862.128623  -7202.971027 -29277.311600     -0.012299                    
P 11   8939.484394 -22992.542659 -10047.478900   -477.397178                    
V 11  11381.250101  -6485.253371  26455.422747     -0.031588                    
P 12   1805.911536  16866.194958 -20558.434261    196.128505                    
V 12 -22521.594909 -12675.540251 -12195.298869      0.024027                    
P 13  -5340.602723 -23560.367822  10719.426862     13.763880                    
V 13   3250.084304 -13628.462500 -28127.381857     -0.039328                    
P 14  13720.040828   9079.904799 -20667.929919    185.063972                    
V 14  -2077.721382  26602.292025  10059.807200     -0.033252                    
P 15  -4818.958356  24494.113074   8579.426073   -171.716070                    
V 15  -4183.285426 -10858.097605  28755.247768     -0.021330                    
P 16  15658.736059  -6246.380013  20577.286665   -224.995250                    
V 16  21839.912742  14213.352664 -11927.520472      0.017055                    
P 17 -14269.798649  -7457.140998 -20907.532663    -81.744351                    
V 17   1104.976558 -27062.735457   8568.768827     -0.031897                    
P 18  18790.550417  17240.192361   8456.057436    310.900713                    
V 18 -10430.254950  -1921.176990  28261.457443      0.022210                    
P 19   8120.719745 -23164.144421   9417.324052   -448.647122                    
V 19   1962.895764  12444.451025  28960.446046     -0.023566                    
P 20  -3378.058141 -17815.713549 -19615.629463    175.920401                    
V 20  22909.933231   9106.821837 -12263.729905      0.036014                    
P 21  12754.090388  10754.155142  21362.826123   -353.050981                    
V 21 -21659.597643  13898.558999   5643.783303     -0.022232                    
P 22  24384.302448  10087.937854  -3502.959617    224.008059                    
V 22   2344.476024   5564.360086  30397.180179      0.025997                    
P 23    339.236637 -26306.062961  -1036.598746     -9.133625                    
V 23   3478.151254   1399.354023 -31795.559347     -0.031742                    
P 24 -10814.576457  19122.092308 -14882.093170    -26.020536                    
V 24 -17198.384318   8160.454127  23103.252724     -0.006864                    
P 25  14295.599938  18042.303238 -13430.480970     20.634408                    
V 25 -15668.676237  -6483.327651 -25379.483495      0.011497                    
P 26 -12339.190777  15951.134842  16464.891752    120.301958                    
V 26   -299.627237 -22342.169588  20899.802188     -0.112521                    
P 27  12629.061247 -13988.632605  18693.569032    -20.298545                    
V 27   2115.419740  23703.657336  16355.468146      0.003559                    
P 28 -22613.284368 -14043.714633   -221.018863    344.339632                    
V 28    153.555080  -2148.106467  32228.353319      0.029767                    
P 29   5501.780428  24444.301860   8930.306847    522.697044                    
V 29  -2599.080186  11190.184656 -29122.877326      0.027898                    
P 30 -17614.285086  -5970.419633  18962.563507      2.003871                    
V 30  20850.713213 -12146.898497  15517.930753     -0.020724                    
P 31  24151.545886  -6796.409954  -9035.106592    334.085745                    
V 31  -9135.493742   7340.729909 -29134.147181      0.001440                    
P 32   9668.618956 -12095.916654 -21491.903571   -457.111667                    
V 32  22728.114374  15517.351863   2022.774469      0.074905                    
EOF
